{"type": "FeatureCollection", "features": [ {"type": "Feature", "properties": {"norad_id": 31568, "name": "FENGYUN 1C DEB", "group": "fengyun-1c-debris", "lat": 70.907083121726, "lon": 79.5758501748301, "alt_km": 799.2021119467581, "timestamp": "2025-12-07T03:52:32.780539+00:00", "meta": {"OBJECT_NAME": "FENGYUN 1C DEB", "OBJECT_ID": "1999-025BZK", "EPOCH": "2025-11-27T22:38:02.918112", "MEAN_MOTION": 14.03182798, "ECCENTRICITY": 0.0121792, "INCLINATION": 102.0468, "RA_OF_ASC_NODE": 209.318, "ARG_OF_PERICENTER": 158.3893, "MEAN_ANOMALY": 202.2464, "EPHEMERIS_TYPE": 0, "CLASSIFICATION_TYPE": "U", "NORAD_CAT_ID": 31568, "ELEMENT_SET_NO": 999, "REV_AT_EPOCH": 94372, "BSTAR": 0.0028015, "MEAN_MOTION_DOT": 4.595e-05, "MEAN_MOTION_DDOT": 0}, "tle": {"line1": "1 31568U 99025BZK 25331.94308933  .00004595  00000+0  28015-2 0  9991", "line2": "2 31568 102.0468 209.3180 0121792 158.3893 202.2464 14.03182798943726"}}, "geometry": {"type": "Point", "coordinates": [79.5758501748301, 70.907083121726]}}, {"type": "Feature", "properties": {"norad_id": 31569, "name": "FENGYUN 1C DEB", "group": "fengyun-1c-debris", "lat": 76.76626543732561, "lon": 64.1008203552616, "alt_km": 849.6858770494355, "timestamp": "2025-12-07T03:52:32.780552+00:00", "meta": {"OBJECT_NAME": "FENGYUN 1C DEB", "OBJECT_ID": "1999-025BZL", "EPOCH": "2025-11-30T05:24:01.468800", "MEAN_MOTION": 13.95405103, "ECCENTRICITY": 0.01728622, "INCLINATION": 102.6164, "RA_OF_ASC_NODE": 126.885, "ARG_OF_PERICENTER": 36.2337, "MEAN_ANOMALY": 138.7821, "EPHEMERIS_TYPE": 0, "CLASSIFICATION_TYPE": "U", "NORAD_CAT_ID": 31569, "ELEMENT_SET_NO": 999, "REV_AT_EPOCH": 93504, "BSTAR": 0.0023090613, "MEAN_MOTION_DOT": 3.477e-05, "MEAN_MOTION_DDOT": 0}, "tle": {"line1": "1 31569U 99025BZL 25334.22501700  .00003477  00000+0  23091-2 0  9990", "line2": "2 31569 102.6164 126.8850 0172862  36.2337 138.7821 13.95405103935048"}}, "geometry": {"type": "Point", "coordinates": [64.1008203552616, 76.76626543732561]}}, {"type": "Feature", "properties": {"norad_id": 31570, "name": "FENGYUN 1C DEB", "group": "fengyun-1c-debris", "lat": 77.40760196111731, "lon": -69.15441802856505, "alt_km": 892.7454071989887, "timestamp": "2025-12-07T03:52:32.780573+00:00", "meta": {"OBJECT_NAME": "FENGYUN 1C DEB", "OBJECT_ID": "1999-025BZM", "EPOCH": "2025-11-25T06:40:18.493248", "MEAN_MOTION": 14.24909801, "ECCENTRICITY": 0.01526257, "INCLINATION": 102.5663, "RA_OF_ASC_NODE": 0.7562, "ARG_OF_PERICENTER": 266.5584, "MEAN_ANOMALY": 91.8112, "EPHEMERIS_TYPE": 0, "CLASSIFICATION_TYPE": "U", "NORAD_CAT_ID": 31570, "ELEMENT_SET_NO": 999, "REV_AT_EPOCH": 63118, "BSTAR": 0.0023713757, "MEAN_MOTION_DOT": 6.183e-05, "MEAN_MOTION_DDOT": 0}, "tle": {"line1": "1 31570U 99025BZM 25329.27799182  .00006183  00000+0  23714-2 0  9993", "line2": "2 31570 102.5663   0.7562 0152625 266.5584  91.8112 14.24909801631187"}}, "geometry": {"type": "Point", "coordinates": [-69.15441802856505, 77.40760196111731]}}, {"type": "Feature", "properties": {"norad_id": 31608, "name": "FENGYUN 1C DEB", "group": "fengyun-1c-debris", "lat": 51.78154828569119, "lon": 88.2169606910783, "alt_km": 504.0752375756065, "timestamp": "2025-12-07T03:52:32.780592+00:00", "meta": {"OBJECT_NAME": "FENGYUN 1C DEB", "OBJECT_ID": "1999-025BZN", "EPOCH": "2025-12-04T14:13:29.603136", "MEAN_MOTION": 14.85679772, "ECCENTRICITY": 0.0146671, "INCLINATION": 98.3801, "RA_OF_ASC_NODE": 96.302, "ARG_OF_PERICENTER": 63.9077, "MEAN_ANOMALY": 297.7147, "EPHEMERIS_TYPE": 0, "CLASSIFICATION_TYPE": "U", "NORAD_CAT_ID": 31608, "ELEMENT_SET_NO": 999, "REV_AT_EPOCH": 98512, "BSTAR": 0.0015593, "MEAN_MOTION_DOT": 0.00016394, "MEAN_MOTION_DDOT": 0}, "tle": {"line1": "1 31608U 99025BZN 25338.59270374  .00016394  00000+0  15593-2 0  9998", "line2": "2 31608  98.3801  96.3020 0146671  63.9077 297.7147 14.85679772985124"}}, "geometry": {"type": "Point", "coordinates": [88.2169606910783, 51.78154828569119]}}, {"type": "Feature", "properties": {"norad_id": 31609, "name": "FENGYUN 1C DEB", "group": "fengyun-1c-debris", "lat": -28.707401684496247, "lon": -175.60303988477085, "alt_km": 887.1203346576731, "timestamp": "2025-12-07T03:52:32.780603+00:00", "meta": {"OBJECT_NAME": "FENGYUN 1C DEB", "OBJECT_ID": "1999-025BZP", "EPOCH": "2025-12-03T00:38:30.011136", "MEAN_MOTION": 14.15605552, "ECCENTRICITY": 0.00949088, "INCLINATION": 99.2182, "RA_OF_ASC_NODE": 5.225, "ARG_OF_PERICENTER": 348.1387, "MEAN_ANOMALY": 41.5257, "EPHEMERIS_TYPE": 0, "CLASSIFICATION_TYPE": "U", "NORAD_CAT_ID": 31609, "ELEMENT_SET_NO": 999, "REV_AT_EPOCH": 65947, "BSTAR": 0.0032300909, "MEAN_MOTION_DOT": 6.563e-05, "MEAN_MOTION_DDOT": 0}, "tle": {"line1": "1 31609U 99025BZP 25337.02673624  .00006563  00000+0  32301-2 0  9994", "line2": "2 31609  99.2182   5.2250 0094908 348.1387  41.5257 14.15605552659479"}}, "geometry": {"type": "Point", "coordinates": [-175.60303988477085, -28.707401684496247]}}, {"type": "Feature", "properties": {"norad_id": 31612, "name": "FENGYUN 1C DEB", "group": "fengyun-1c-debris", "lat": 19.547628618398043, "lon": 77.84120086803043, "alt_km": 350.97144125766044, "timestamp": "2025-12-07T03:52:32.780613+00:00", "meta": {"OBJECT_NAME": "FENGYUN 1C DEB", "OBJECT_ID": "1999-025BZS", "EPOCH": "2025-11-26T23:13:26.859936", "MEAN_MOTION": 15.63030412, "ECCENTRICITY": 0.0034124, "INCLINATION": 100.3408, "RA_OF_ASC_NODE": 239.2079, "ARG_OF_PERICENTER": 150.8693, "MEAN_ANOMALY": 209.4468, "EPHEMERIS_TYPE": 0, "CLASSIFICATION_TYPE": "U", "NORAD_CAT_ID": 31612, "ELEMENT_SET_NO": 999, "REV_AT_EPOCH": 99915, "BSTAR": 0.0020210875, "MEAN_MOTION_DOT": 0.00192851, "MEAN_MOTION_DDOT": 0}, "tle": {"line1": "1 31612U 99025BZS 25330.96767199  .00192851  00000+0  20211-2 0  9998", "line2": "2 31612 100.3408 239.2079 0034124 150.8693 209.4468 15.63030412999150"}}, "geometry": {"type": "Point", "coordinates": [77.84120086803043, 19.547628618398043]}}, {"type": "Feature", "properties": {"norad_id": 31613, "name": "FENGYUN 1C DEB", "group": "fengyun-1c-debris", "lat": 6.248830952846027, "lon": -10.128809506136069, "alt_km": 866.2538958816986, "timestamp": "2025-12-07T03:52:32.780623+00:00", "meta": {"OBJECT_NAME": "FENGYUN 1C DEB", "OBJECT_ID": "1999-025BZT", "EPOCH": "2025-12-01T23:46:06.044736", "MEAN_MOTION": 13.63390808, "ECCENTRICITY": 0.0342814, "INCLINATION": 98.4246, "RA_OF_ASC_NODE": 164.4531, "ARG_OF_PERICENTER": 134.5247, "MEAN_ANOMALY": 228.4457, "EPHEMERIS_TYPE": 0, "CLASSIFICATION_TYPE": "U", "NORAD_CAT_ID": 31613, "ELEMENT_SET_NO": 999, "REV_AT_EPOCH": 91615, "BSTAR": 0.0015294333, "MEAN_MOTION_DOT": 1.76e-05, "MEAN_MOTION_DDOT": 0}, "tle": {"line1": "1 31613U 99025BZT 25335.99034774  .00001760  00000+0  15294-2 0  9996", "line2": "2 31613  98.4246 164.4531 0342814 134.5247 228.4457 13.63390808916156"}}, "geometry": {"type": "Point", "coordinates": [-10.128809506136069, 6.248830952846027]}}, {"type": "Feature", "properties": {"norad_id": 31614, "name": "FENGYUN 1C DEB", "group": "fengyun-1c-debris", "lat": 61.46532458246525, "lon": -130.7645846018222, "alt_km": 562.0420085371588, "timestamp": "2025-12-07T03:52:32.780634+00:00", "meta": {"OBJECT_NAME": "FENGYUN 1C DEB", "OBJECT_ID": "1999-025BZU", "EPOCH": "2025-12-06T12:20:11.556096", "MEAN_MOTION": 14.95766982, "ECCENTRICITY": 0.00230912, "INCLINATION": 98.9741, "RA_OF_ASC_NODE": 245.3903, "ARG_OF_PERICENTER": 19.6446, "MEAN_ANOMALY": 158.4073, "EPHEMERIS_TYPE": 0, "CLASSIFICATION_TYPE": "U", "NORAD_CAT_ID": 31614, "ELEMENT_SET_NO": 999, "REV_AT_EPOCH": 96336, "BSTAR": 0.014278433, "MEAN_MOTION_DOT": 0.00163632, "MEAN_MOTION_DDOT": 0}, "tle": {"line1": "1 31614U 99025BZU 25340.51402264  .00163632  00000+0  14278-1 0  9991", "line2": "2 31614  98.9741 245.3903 0023091  19.6446 158.4073 14.95766982963368"}}, "geometry": {"type": "Point", "coordinates": [-130.7645846018222, 61.46532458246525]}}, {"type": "Feature", "properties": {"norad_id": 31615, "name": "FENGYUN 1C DEB", "group": "fengyun-1c-debris", "lat": 43.07544384398485, "lon": 23.608052461071242, "alt_km": 729.7459715116893, "timestamp": "2025-12-07T03:52:32.780644+00:00", "meta": {"OBJECT_NAME": "FENGYUN 1C DEB", "OBJECT_ID": "1999-025BZV", "EPOCH": "2025-12-06T14:17:28.979520", "MEAN_MOTION": 14.35165605, "ECCENTRICITY": 0.01656446, "INCLINATION": 99.137, "RA_OF_ASC_NODE": 31.6635, "ARG_OF_PERICENTER": 334.8956, "MEAN_ANOMALY": 24.4239, "EPHEMERIS_TYPE": 0, "CLASSIFICATION_TYPE": "U", "NORAD_CAT_ID": 31615, "ELEMENT_SET_NO": 999, "REV_AT_EPOCH": 65190, "BSTAR": 0.0051683193, "MEAN_MOTION_DOT": 0.00017237, "MEAN_MOTION_DDOT": 0}, "tle": {"line1": "1 31615U 99025BZV 25340.59547430  .00017237  00000+0  51683-2 0  9996", "line2": "2 31615  99.1370  31.6635 0165644 334.8956  24.4239 14.35165605651906"}}, "geometry": {"type": "Point", "coordinates": [23.608052461071242, 43.07544384398485]}}, {"type": "Feature", "properties": {"norad_id": 31618, "name": "FENGYUN 1C DEB", "group": "fengyun-1c-debris", "lat": 33.22687996970693, "lon": 117.44933728975947, "alt_km": 748.9640347429222, "timestamp": "2025-12-07T03:52:32.780654+00:00", "meta": {"OBJECT_NAME": "FENGYUN 1C DEB", "OBJECT_ID": "1999-025BZY", "EPOCH": "2025-12-06T15:53:33.226368", "MEAN_MOTION": 14.21007112, "ECCENTRICITY": 0.01572763, "INCLINATION": 99.4418, "RA_OF_ASC_NODE": 123.1738, "ARG_OF_PERICENTER": 343.2659, "MEAN_ANOMALY": 16.336, "EPHEMERIS_TYPE": 0, "CLASSIFICATION_TYPE": "U", "NORAD_CAT_ID": 31618, "ELEMENT_SET_NO": 999, "REV_AT_EPOCH": 70178, "BSTAR": 0.00047557604, "MEAN_MOTION_DOT": 1.117e-05, "MEAN_MOTION_DDOT": 0}, "tle": {"line1": "1 31618U 99025BZY 25340.66219012  .00001117  00000+0  47558-3 0  9996", "line2": "2 31618  99.4418 123.1738 0157276 343.2659  16.3360 14.21007112701782"}}, "geometry": {"type": "Point", "coordinates": [117.44933728975947, 33.22687996970693]}}]}